NORAD_CAT_ID,OBJECT_NAME,OBJECT_TYPE,EPOCH,MEAN_MOTION,ECCENTRICITY,INCLINATION,RA_OF_ASC_NODE,ARG_OF_PERICENTER,MEAN_ANOMALY,BSTAR,MEAN_MOTION_DOT,MEAN_MOTION_DDOT,TLE_LINE0,TLE_LINE1,TLE_LINE2,SEMIMAJOR_AXIS,PERIOD,APOGEE,PERIGEE,DECAYED
50180.0,STARLINK-3265,PAYLOAD,2023-10-07 15:18:37,15.08835997,0.0001543,53.2177,257.7949,84.7586,275.3582,-6.5551e-06,-3.92e-06,0.0,0 STARLINK-3265,1 50180U 21125AA  23280.63793182 -.00000392  00000-0 -65551-5 0  9992,2 50180  53.2177 257.7949 0001543  84.7586 275.3582 15.08835997103185,6917.893,95.438,540.825,538.69,0.0
50180.0,STARLINK-3265,PAYLOAD,2023-10-08 02:26:19,15.08842909,0.0001421,53.2177,255.7125,91.7181,268.3974,7.3419e-05,8.81e-06,0.0,0 STARLINK-3265,1 50180U 21125AA  23281.10161104  .00000881  00000-0  73419-4 0  9990,2 50180  53.2177 255.7125 0001421  91.7181 268.3974 15.08842909100122,6917.871,95.437,540.72,538.753,0.0
50180.0,STARLINK-3265,PAYLOAD,2023-10-08 08:47:51,15.08851161,0.0001461,53.2171,254.521,90.5978,269.5182,0.00030128,4.512e-05,0.0,0 STARLINK-3265,1 50180U 21125AA  23281.36656656  .00004512  00000-0  30128-3 0  9993,2 50180  53.2171 254.5210 0001461  90.5978 269.5182 15.08851161103298,6917.846,95.437,540.722,538.701,0.0
50180.0,STARLINK-3265,PAYLOAD,2023-10-08 21:30:56,15.08844858,0.0001623,53.2164,252.1422,88.5104,271.6074,0.00015692,2.211e-05,0.0,0 STARLINK-3265,1 50180U 21125AA  23281.89648975  .00002211  00000-0  15692-3 0  9999,2 50180  53.2164 252.1422 0001623  88.5104 271.6074 15.08844858103375,6917.866,95.437,540.853,538.608,0.0
50180.0,STARLINK-3265,PAYLOAD,2023-10-09 02:17:06,15.08844749,0.0001596,53.2169,251.251,89.9438,270.1737,0.0001468,2.049e-05,0.0,0 STARLINK-3265,1 50180U 21125AA  23282.09520914  .00002049  00000-0  14680-3 0  9999,2 50180  53.2169 251.2510 0001596  89.9438 270.1737 15.08844749100277,6917.866,95.437,540.835,538.627,0.0
50180.0,STARLINK-3265,PAYLOAD,2023-10-09 07:03:15,15.08850727,0.0001598,53.2166,250.3584,84.3478,275.7696,0.00024471,3.61e-05,0.0,0 STARLINK-3265,1 50180U 21125AA  23282.29392677  .00003610  00000-0  24471-3 0  9998,2 50180  53.2166 250.3584 0001598  84.3478 275.7696 15.08850727103439,6917.848,95.437,540.818,538.607,0.0
50180.0,STARLINK-3265,PAYLOAD,2023-10-09 15:00:11,15.08846473,0.0001637,53.2164,248.8718,80.3045,279.8132,0.00014588,2.035e-05,0.0,0 STARLINK-3265,1 50180U 21125AA  23282.62512773  .00002035  00000-0  14588-3 0  9994,2 50180  53.2164 248.8718 0001637  80.3045 279.8132 15.08846473103486,6917.861,95.437,540.858,538.593,0.0
50180.0,STARLINK-3265,PAYLOAD,2023-10-10 02:07:53,15.08840028,0.0001774,53.2179,246.789,83.1764,276.943,5.096e-05,5.23e-06,0.0,0 STARLINK-3265,1 50180U 21125AA  23283.08881104  .00000523  00000-0  50960-4 0  9997,2 50180  53.2179 246.7890 0001774  83.1764 276.9430 15.08840028100421,6917.88,95.438,540.973,538.518,0.0
50180.0,STARLINK-3265,PAYLOAD,2023-10-10 08:29:25,15.08844825,0.0001781,53.2161,245.6002,80.6201,279.4992,0.00039115,5.943e-05,0.0,0 STARLINK-3265,1 50180U 21125AA  23283.35376967  .00005943  00000-0  39115-3 0  9992,2 50180  53.2161 245.6002 0001781  80.6201 279.4992 15.08844825103592,6917.866,95.437,540.963,538.499,0.0
50180.0,STARLINK-3265,PAYLOAD,2023-10-10 21:12:31,15.08833161,0.0001722,53.2152,243.2215,93.5907,266.5282,5.434e-05,5.77e-06,0.0,0 STARLINK-3265,1 50180U 21125AA  23283.88369464  .00000577  00000-0  54340-4 0  9990,2 50180  53.2152 243.2215 0001722  93.5907 266.5282 15.08833161103672,6917.901,95.438,540.958,538.575,0.0
50180.0,STARLINK-3265,PAYLOAD,2023-10-11 03:34:03,15.08835622,0.0001458,53.2145,242.0317,99.1558,260.96,0.00022399,3.278e-05,0.0,0 STARLINK-3265,1 50180U 21125AA  23284.14865489  .00003278  00000-0  22399-3 0  9997,2 50180  53.2145 242.0317 0001458  99.1558 260.9600 15.08835622100587,6917.894,95.438,540.767,538.75,0.0
50180.0,STARLINK-3265,PAYLOAD,2023-10-11 06:44:49,15.08843118,0.0001592,53.215,241.4366,98.4442,261.673,0.00047422,7.268e-05,0.0,0 STARLINK-3265,1 50180U 21125AA  23284.28113416  .00007268  00000-0  47422-3 0  9995,2 50180  53.2150 241.4366 0001592  98.4442 261.6730 15.08843118103734,6917.871,95.437,540.837,538.635,0.0
50180.0,STARLINK-3265,PAYLOAD,2023-10-11 14:41:46,15.08828502,0.000176,53.2169,239.9503,95.6777,264.4416,0.00018635,2.678e-05,0.0,0 STARLINK-3265,1 50180U 21125AA  23284.61234003  .00002678  00000-0  18635-3 0  9992,2 50180  53.2169 239.9503 0001760  95.6777 264.4416 15.08828502100656,6917.916,95.438,540.998,538.563,0.0
50180.0,STARLINK-3265,PAYLOAD,2023-10-12 03:24:51,15.08849386,0.0001456,53.2156,237.5713,104.3838,255.7315,0.00090819,0.00014199,0.0,0 STARLINK-3265,1 50180U 21125AA  23285.14225834  .00014199  00000-0  90819-3 0  9998,2 50180  53.2156 237.5713 0001456 104.3838 255.7315 15.08849386100730,6917.852,95.437,540.724,538.709,0.0
50180.0,STARLINK-3265,PAYLOAD,2023-10-12 14:32:33,15.08843655,0.0001884,53.2172,235.4906,86.4535,273.6673,0.00084859,0.00013244,0.0,0 STARLINK-3265,1 50180U 21125AA  23285.60594267  .00013244  00000-0  84859-3 0  9995,2 50180  53.2172 235.4906 0001884  86.4535 273.6673 15.08843655103932,6917.869,95.437,541.038,538.431,0.0
50180.0,STARLINK-3265,PAYLOAD,2023-10-13 06:26:24,15.08855721,0.0001614,53.2166,232.5168,91.7312,268.3865,0.0012153,0.00019115,0.0,0 STARLINK-3265,1 50180U 21125AA  23286.26833882  .00019115  00000-0  12153-2 0  9997,2 50180  53.2166 232.5168 0001614  91.7312 268.3865 15.08855721104039,6917.832,95.437,540.814,538.581,0.0
50180.0,STARLINK-3265,PAYLOAD,2023-10-13 20:44:52,15.08864912,0.0001975,53.2174,229.8379,99.4799,260.6416,0.0012852,0.00020239,0.0,0 STARLINK-3265,1 50180U 21125AA  23286.86449705  .00020239  00000-0  12852-2 0  9995,2 50180  53.2174 229.8379 0001975  99.4799 260.6416 15.08864912100995,6917.804,95.436,541.036,538.303,0.0
50180.0,STARLINK-3265,PAYLOAD,2023-10-14 12:38:43,15.08846127,0.000247,53.2179,226.8667,80.2426,279.8845,0.00053114,8.177e-05,0.0,0 STARLINK-3265,1 50180U 21125AA  23287.52689790  .00008177  00000-0  53114-3 0  9993,2 50180  53.2179 226.8667 0002470  80.2426 279.8845 15.08846127104229,6917.862,95.437,541.435,538.018,0.0
50180.0,STARLINK-3265,PAYLOAD,2023-10-14 20:35:39,15.08832879,0.0002834,53.2194,225.3833,99.7133,260.418,0.00061117,9.45e-05,0.0,0 STARLINK-3265,1 50180U 21125AA  23287.85810171  .00009450  00000-0  61117-3 0  9995,2 50180  53.2194 225.3833 0002834  99.7133 260.4180 15.08832879101144,6917.902,95.438,541.728,537.807,0.0
50180.0,STARLINK-3265,PAYLOAD,2023-10-15 12:29:32,15.08835255,0.0001452,53.2179,222.406,82.4072,277.7085,0.0016331,0.00025795,0.0,0 STARLINK-3265,1 50180U 21125AA  23288.52051064  .00025795  00000-0  16331-2 0  9995,2 50180  53.2179 222.4060 0001452  82.4072 277.7085 15.08835255101240,6917.895,95.438,540.764,538.755,0.0
50180.0,STARLINK-3265,PAYLOAD,2023-10-16 12:20:18,15.08859829,0.0001393,53.2166,217.9424,78.2647,281.8502,0.00089513,0.00013994,0.0,0 STARLINK-3265,1 50180U 21125AA  23289.51410592  .00013994  00000-0  89513-3 0  9991,2 50180  53.2166 217.9424 0001393  78.2647 281.8502 15.08859829101393,6917.82,95.436,540.648,538.721,0.0
50180.0,STARLINK-3265,PAYLOAD,2023-10-17 12:11:05,15.088491,0.0002202,53.2164,213.4871,84.9576,275.1668,0.00078931,0.00012299,0.0,0 STARLINK-3265,1 50180U 21125AA  23290.50770571  .00012299  00000-0  78931-3 0  9997,2 50180  53.2164 213.4871 0002202  84.9576 275.1668 15.08849100101540,6917.853,95.437,541.241,538.194,0.0
50180.0,STARLINK-3265,PAYLOAD,2023-10-18 02:29:33,15.08846794,0.0001667,53.216,210.8102,87.629,272.4893,0.00036767,5.569e-05,0.0,0 STARLINK-3265,1 50180U 21125AA  23291.10386309  .00005569  00000-0  36767-3 0  9999,2 50180  53.2160 210.8102 0001667  87.6290 272.4893 15.08846794104764,6917.86,95.437,540.878,538.571,0.0
50180.0,STARLINK-3265,PAYLOAD,2023-10-18 12:01:52,15.0884048,0.0001752,53.2162,209.0264,85.1466,274.9726,0.00039352,5.98e-05,0.0,0 STARLINK-3265,1 50180U 21125AA  23291.50130600  .00005980  00000-0  39352-3 0  9994,2 50180  53.2162 209.0264 0001752  85.1466 274.9726 15.08840480101695,6917.879,95.438,540.956,538.532,0.0
50180.0,STARLINK-3265,PAYLOAD,2023-10-19 03:55:43,15.08853943,0.0001576,53.2173,206.0492,95.0393,265.0779,0.00083404,0.00013016,0.0,0 STARLINK-3265,1 50180U 21125AA  23292.16370329  .00013016  00000-0  83404-3 0  9997,2 50180  53.2173 206.0492 0001576  95.0393 265.0779 15.08853943104926,6917.838,95.437,540.793,538.613,0.0
50180.0,STARLINK-3265,PAYLOAD,2023-10-20 03:46:30,15.08867452,0.0001585,53.2175,201.589,106.3141,253.8026,0.0008181,0.00012766,0.0,0 STARLINK-3265,1 50180U 21125AA  23293.15729485  .00012766  00000-0  81810-3 0  9998,2 50180  53.2175 201.5890 0001585 106.3141 253.8026 15.08867452101946,6917.796,95.436,540.758,538.565,0.0
50180.0,STARLINK-3265,PAYLOAD,2023-10-20 18:04:59,15.08830761,0.0001668,53.2173,198.914,81.9306,278.1875,0.00012964,1.775e-05,0.0,0 STARLINK-3265,1 50180U 21125AA  23293.75346513  .00001775  00000-0  12964-3 0  9993,2 50180  53.2173 198.9140 0001668  81.9306 278.1875 15.08830761102030,6917.909,95.438,540.928,538.62,0.0
50180.0,STARLINK-3265,PAYLOAD,2023-10-20 22:51:09,15.0882834,0.0001357,53.2168,198.0214,88.2938,271.8209,0.00036556,5.533e-05,0.0,0 STARLINK-3265,1 50180U 21125AA  23293.95218761  .00005533  00000-0  36556-3 0  9997,2 50180  53.2168 198.0214 0001357  88.2938 271.8209 15.08828340105194,6917.916,95.438,540.72,538.842,0.0
50180.0,STARLINK-3265,PAYLOAD,2023-10-21 00:26:32,15.08825289,0.0001352,53.2168,197.7251,81.4784,278.6362,0.00043693,6.67e-05,0.0,0 STARLINK-3265,1 50180U 21125AA  23294.01842941  .00006670  00000-0  43693-3 0  9991,2 50180  53.2168 197.7251 0001352  81.4784 278.6362 15.08825289105206,6917.925,95.438,540.726,538.855,0.0
50180.0,STARLINK-3265,PAYLOAD,2023-10-21 17:55:46,15.08853878,0.0001254,53.2169,194.4529,94.9119,265.2016,0.0010064,0.00015771,0.0,0 STARLINK-3265,1 50180U 21125AA  23294.74706602  .00015771  00000-0  10064-2 0  9991,2 50180  53.2169 194.4529 0001254  94.9119 265.2016 15.08853878102188,6917.838,95.437,540.57,538.835,0.0
